{
    "links": {
        "self": "http://www.neowsapp.com/rest/v1/neo/3843620?api_key=iIulBulltgU6a56xZRHN4H3l9WmuAYTsLGpBGhQ2"
    },
    "id": "3843620",
    "neo_reference_id": "3843620",
    "name": "(2019 QT2)",
    "designation": "2019 QT2",
    "nasa_jpl_url": "http://ssd.jpl.nasa.gov/sbdb.cgi?sstr=3843620",
    "absolute_magnitude_h": 24.0,
    "estimated_diameter": {
        "kilometers": {
            "estimated_diameter_min": 0.0421264611,
            "estimated_diameter_max": 0.0941976306
        },
        "meters": {
            "estimated_diameter_min": 42.1264610556,
            "estimated_diameter_max": 94.1976305719
        },
        "miles": {
            "estimated_diameter_min": 0.0261761612,
            "estimated_diameter_max": 0.0585316759
        },
        "feet": {
            "estimated_diameter_min": 138.2101784897,
            "estimated_diameter_max": 309.0473542854
        }
    },
    "is_potentially_hazardous_asteroid": false,
    "close_approach_data": [
        {
            "close_approach_date": "2015-02-08",
            "close_approach_date_full": "2015-Feb-08 19:10",
            "epoch_date_close_approach": 1423422600000,
            "relative_velocity": {
                "kilometers_per_second": "21.9330309992",
                "kilometers_per_hour": "78958.9115970613",
                "miles_per_hour": "49061.997042074"
            },
            "miss_distance": {
                "astronomical": "0.2629582445",
                "lunar": "102.2907571105",
                "kilometers": "39337993.276139215",
                "miles": "24443495.561842567"
            },
            "orbiting_body": "Earth"
        },
        {
            "close_approach_date": "2019-09-14",
            "close_approach_date_full": "2019-Sep-14 08:43",
            "epoch_date_close_approach": 1568450580000,
            "relative_velocity": {
                "kilometers_per_second": "14.3427364987",
                "kilometers_per_hour": "51633.8513951868",
                "miles_per_hour": "32083.2672738593"
            },
            "miss_distance": {
                "astronomical": "0.0576012082",
                "lunar": "22.4068699898",
                "kilometers": "8617018.056146534",
                "miles": "5354366.7348048092"
            },
            "orbiting_body": "Earth"
        }
    ],
    "orbital_data": {
        "orbit_id": "6",
        "orbit_determination_date": "2019-10-21 05:58:22",
        "first_observation_date": "2019-08-23",
        "last_observation_date": "2019-09-07",
        "data_arc_in_days": 15,
        "observations_used": 24,
        "orbit_uncertainty": "7",
        "minimum_orbit_intersection": ".0276694",
        "jupiter_tisserand_invariant": "3.829",
        "epoch_osculation": "2459000.5",
        "eccentricity": ".5676804709872034",
        "semi_major_axis": "1.805109101921926",
        "inclination": "12.69416754150991",
        "ascending_node_longitude": "160.9851177634509",
        "orbital_period": "885.8365815545809",
        "perihelion_distance": ".7803839167595992",
        "perihelion_argument": "255.6647906416108",
        "aphelion_distance": "2.829834287084252",
        "perihelion_time": "2458786.776769279813",
        "mean_anomaly": "86.85615909453908",
        "mean_motion": ".4063954994590823",
        "equinox": "J2000",
        "orbit_class": {
            "orbit_class_type": "APO",
            "orbit_class_description": "Near-Earth asteroid orbits which cross the Earth’s orbit similar to that of 1862 Apollo",
            "orbit_class_range": "a (semi-major axis) > 1.0 AU; q (perihelion) < 1.017 AU"
        }
    },
    "is_sentry_object": false
}